FLOCK 4G-36             
1 62675U 25009BU  26068.70726311  .00013573  00000+0  51122-3 0  9993
2 62675  97.4053 151.0513 0003474 324.2456  35.8550 15.27209548 63701
STARLINK-36474          
1 67353U 26003V   26068.52237974  .00041766  00000+0  15175-2 0  9990
2 67353  42.9993 228.4102 0000732 250.2873 109.7900 15.27605333  8795
