[{"OBJECT_NAME":"FLOCK 4G-36","OBJECT_ID":"2025-009BU","EPOCH":"2026-03-09T16:58:27.533568","MEAN_MOTION":15.27209548,"ECCENTRICITY":0.00034736,"INCLINATION":97.4053,"RA_OF_ASC_NODE":151.0513,"ARG_OF_PERICENTER":324.2456,"MEAN_ANOMALY":35.855,"EPHEMERIS_TYPE":0,"CLASSIFICATION_TYPE":"U","NORAD_CAT_ID":62675,"ELEMENT_SET_NO":999,"REV_AT_EPOCH":6370,"BSTAR":0.00051121743,"MEAN_MOTION_DOT":0.00013573,"MEAN_MOTION_DDOT":0},{"OBJECT_NAME":"STARLINK-36474","OBJECT_ID":"2026-003V","EPOCH":"2026-03-09T12:32:13.609536","MEAN_MOTION":15.27605333,"ECCENTRICITY":7.328e-5,"INCLINATION":42.9993,"RA_OF_ASC_NODE":228.4102,"ARG_OF_PERICENTER":250.2873,"MEAN_ANOMALY":109.79,"EPHEMERIS_TYPE":0,"CLASSIFICATION_TYPE":"U","NORAD_CAT_ID":67353,"ELEMENT_SET_NO":999,"REV_AT_EPOCH":879,"BSTAR":0.0015175353,"MEAN_MOTION_DOT":0.00041766,"MEAN_MOTION_DDOT":0}]
